{
    "links": {
        "self": "http://www.neowsapp.com/rest/v1/neo/3873154?api_key=iIulBulltgU6a56xZRHN4H3l9WmuAYTsLGpBGhQ2"
    },
    "id": "3873154",
    "neo_reference_id": "3873154",
    "name": "(2019 SK9)",
    "designation": "2019 SK9",
    "nasa_jpl_url": "http://ssd.jpl.nasa.gov/sbdb.cgi?sstr=3873154",
    "absolute_magnitude_h": 27.1,
    "estimated_diameter": {
        "kilometers": {
            "estimated_diameter_min": 0.0101054342,
            "estimated_diameter_max": 0.0225964377
        },
        "meters": {
            "estimated_diameter_min": 10.1054341542,
            "estimated_diameter_max": 22.5964377109
        },
        "miles": {
            "estimated_diameter_min": 0.0062792237,
            "estimated_diameter_max": 0.0140407711
        },
        "feet": {
            "estimated_diameter_min": 33.1543125905,
            "estimated_diameter_max": 74.1352966996
        }
    },
    "is_potentially_hazardous_asteroid": false,
    "close_approach_data": [
        {
            "close_approach_date": "2019-09-25",
            "close_approach_date_full": "2019-Sep-25 08:49",
            "epoch_date_close_approach": 1569401340000,
            "relative_velocity": {
                "kilometers_per_second": "17.8927074286",
                "kilometers_per_hour": "64413.7467428426",
                "miles_per_hour": "40024.1972469624"
            },
            "miss_distance": {
                "astronomical": "0.0058755517",
                "lunar": "2.2855896113",
                "kilometers": "878970.019394879",
                "miles": "546166.6439681702"
            },
            "orbiting_body": "Moon"
        },
        {
            "close_approach_date": "2019-09-25",
            "close_approach_date_full": "2019-Sep-25 11:52",
            "epoch_date_close_approach": 1569412320000,
            "relative_velocity": {
                "kilometers_per_second": "16.961083447",
                "kilometers_per_hour": "61059.9004093728",
                "miles_per_hour": "37940.2475627017"
            },
            "miss_distance": {
                "astronomical": "0.0078948656",
                "lunar": "3.0711027184",
                "kilometers": "1181055.077696272",
                "miles": "733873.5951096736"
            },
            "orbiting_body": "Earth"
        }
    ],
    "orbital_data": {
        "orbit_id": "4",
        "orbit_determination_date": "2019-10-07 05:57:53",
        "first_observation_date": "2019-09-30",
        "last_observation_date": "2019-10-07",
        "data_arc_in_days": 7,
        "observations_used": 17,
        "orbit_uncertainty": "9",
        "minimum_orbit_intersection": ".00160835",
        "jupiter_tisserand_invariant": "3.057",
        "epoch_osculation": "2458758.5",
        "eccentricity": ".6928338583700808",
        "semi_major_axis": "2.535336252757886",
        "inclination": "3.306889672758952",
        "ascending_node_longitude": "4.097772949327203",
        "orbital_period": "1474.523765127168",
        "perihelion_distance": ".7787694544940973",
        "perihelion_argument": "295.3908794482553",
        "aphelion_distance": "4.291903051021674",
        "perihelion_time": "2458711.804469530956",
        "mean_anomaly": "11.40055614322774",
        "mean_motion": ".2441466244994378",
        "equinox": "J2000",
        "orbit_class": {
            "orbit_class_type": "APO",
            "orbit_class_description": "Near-Earth asteroid orbits which cross the Earth’s orbit similar to that of 1862 Apollo",
            "orbit_class_range": "a (semi-major axis) > 1.0 AU; q (perihelion) < 1.017 AU"
        }
    },
    "is_sentry_object": false
}